CCSDS_OMM_VERS = 2.0
CREATION_DATE  = 
ORIGINATOR     = 

OBJECT_NAME    = SL-14 R/B
OBJECT_ID      = 1991-042B
CENTER_NAME    = EARTH
REF_FRAME      = TEME
TIME_SYSTEM    = UTC
MEAN_ELEMENT_THEORY = SGP/SGP4

EPOCH          = 2026-02-25T11:13:54.379200
MEAN_MOTION    = 14.81815039
ECCENTRICITY   = .0015563
INCLINATION    = 82.4901
RA_OF_ASC_NODE = 231.6445
ARG_OF_PERICENTER = 282.4846
MEAN_ANOMALY   = 77.4626

EPHEMERIS_TYPE = 0
CLASSIFICATION_TYPE = U
NORAD_CAT_ID   = 21423
ELEMENT_SET_NO = 999
REV_AT_EPOCH   = 85126
BSTAR          = .52799E-4
MEAN_MOTION_DOT = .441E-5
MEAN_MOTION_DDOT = 0

CCSDS_OMM_VERS = 2.0
CREATION_DATE  = 
ORIGINATOR     = 

OBJECT_NAME    = ERS-1
OBJECT_ID      = 1991-050A
CENTER_NAME    = EARTH
REF_FRAME      = TEME
TIME_SYSTEM    = UTC
MEAN_ELEMENT_THEORY = SGP/SGP4

EPOCH          = 2026-02-25T11:07:13.481472
MEAN_MOTION    = 14.39438284
ECCENTRICITY   = .0031056
INCLINATION    = 98.7890
RA_OF_ASC_NODE = 74.3905
ARG_OF_PERICENTER = 237.4592
MEAN_ANOMALY   = 122.3593

EPHEMERIS_TYPE = 0
CLASSIFICATION_TYPE = U
NORAD_CAT_ID   = 21574
ELEMENT_SET_NO = 999
REV_AT_EPOCH   = 81397
BSTAR          = .11333E-3
MEAN_MOTION_DOT = .308E-5
MEAN_MOTION_DDOT = 0

CCSDS_OMM_VERS = 2.0
CREATION_DATE  = 
ORIGINATOR     = 

OBJECT_NAME    = ARIANE 40 R/B
OBJECT_ID      = 1991-050F
CENTER_NAME    = EARTH
REF_FRAME      = TEME
TIME_SYSTEM    = UTC
MEAN_ELEMENT_THEORY = SGP/SGP4

EPOCH          = 2026-02-25T03:03:19.336896
MEAN_MOTION    = 14.42882973
ECCENTRICITY   = .00043439
INCLINATION    = 98.2041
RA_OF_ASC_NODE = 108.8337
ARG_OF_PERICENTER = 108.3367
MEAN_ANOMALY   = 251.8297

EPHEMERIS_TYPE = 0
CLASSIFICATION_TYPE = U
NORAD_CAT_ID   = 21610
ELEMENT_SET_NO = 999
REV_AT_EPOCH   = 81718
BSTAR          = .84694309E-4
MEAN_MOTION_DOT = .241E-5
MEAN_MOTION_DDOT = 0

CCSDS_OMM_VERS = 2.0
CREATION_DATE  = 
ORIGINATOR     = 

OBJECT_NAME    = INTERCOSMOS 25
OBJECT_ID      = 1991-086A
CENTER_NAME    = EARTH
REF_FRAME      = TEME
TIME_SYSTEM    = UTC
MEAN_ELEMENT_THEORY = SGP/SGP4

EPOCH          = 2026-02-25T04:35:45.214656
MEAN_MOTION    = 12.11958918
ECCENTRICITY   = .1487096
INCLINATION    = 82.6072
RA_OF_ASC_NODE = 317.5611
ARG_OF_PERICENTER = 143.8564
MEAN_ANOMALY   = 227.2950

EPHEMERIS_TYPE = 0
CLASSIFICATION_TYPE = U
NORAD_CAT_ID   = 21819
ELEMENT_SET_NO = 999
REV_AT_EPOCH   = 49517
BSTAR          = .26895E-3
MEAN_MOTION_DOT = .1403E-4
MEAN_MOTION_DDOT = 0

CCSDS_OMM_VERS = 2.0
CREATION_DATE  = 
ORIGINATOR     = 

OBJECT_NAME    = SL-8 R/B
OBJECT_ID      = 1992-008B
CENTER_NAME    = EARTH
REF_FRAME      = TEME
TIME_SYSTEM    = UTC
MEAN_ELEMENT_THEORY = SGP/SGP4

EPOCH          = 2026-02-25T03:41:01.020192
MEAN_MOTION    = 13.75969931
ECCENTRICITY   = .00348931
INCLINATION    = 82.9235
RA_OF_ASC_NODE = 277.1058
ARG_OF_PERICENTER = 167.6842
MEAN_ANOMALY   = 311.4648

EPHEMERIS_TYPE = 0
CLASSIFICATION_TYPE = U
NORAD_CAT_ID   = 21876
ELEMENT_SET_NO = 999
REV_AT_EPOCH   = 70769
BSTAR          = -.3363115E-5
MEAN_MOTION_DOT = .12E-6
MEAN_MOTION_DDOT = 0

CCSDS_OMM_VERS = 2.0
CREATION_DATE  = 
ORIGINATOR     = 

OBJECT_NAME    = SL-8 R/B
OBJECT_ID      = 1992-020B
CENTER_NAME    = EARTH
REF_FRAME      = TEME
TIME_SYSTEM    = UTC
MEAN_ELEMENT_THEORY = SGP/SGP4

EPOCH          = 2026-02-25T09:36:37.541664
MEAN_MOTION    = 13.75547886
ECCENTRICITY   = .0028215
INCLINATION    = 82.9344
RA_OF_ASC_NODE = 162.8830
ARG_OF_PERICENTER = 334.3958
MEAN_ANOMALY   = 92.4151

EPHEMERIS_TYPE = 0
CLASSIFICATION_TYPE = U
NORAD_CAT_ID   = 21938
ELEMENT_SET_NO = 999
REV_AT_EPOCH   = 69944
BSTAR          = .61993E-4
MEAN_MOTION_DOT = .75E-6
MEAN_MOTION_DDOT = 0

CCSDS_OMM_VERS = 2.0
CREATION_DATE  = 
ORIGINATOR     = 

OBJECT_NAME    = USA 81
OBJECT_ID      = 1992-023A
CENTER_NAME    = EARTH
REF_FRAME      = TEME
TIME_SYSTEM    = UTC
MEAN_ELEMENT_THEORY = SGP/SGP4

EPOCH          = 2026-02-25T07:03:18.842976
MEAN_MOTION    = 14.32363236
ECCENTRICITY   = .0002745
INCLINATION    = 85.0108
RA_OF_ASC_NODE = 138.5903
ARG_OF_PERICENTER = 88.4169
MEAN_ANOMALY   = 271.7338

EPHEMERIS_TYPE = 0
CLASSIFICATION_TYPE = U
NORAD_CAT_ID   = 21949
ELEMENT_SET_NO = 999
REV_AT_EPOCH   = 9301
BSTAR          = .55038E-4
MEAN_MOTION_DOT = .169E-5
MEAN_MOTION_DDOT = 0

CCSDS_OMM_VERS = 2.0
CREATION_DATE  = 
ORIGINATOR     = 

OBJECT_NAME    = COSMOS 2219
OBJECT_ID      = 1992-076A
CENTER_NAME    = EARTH
REF_FRAME      = TEME
TIME_SYSTEM    = UTC
MEAN_ELEMENT_THEORY = SGP/SGP4

EPOCH          = 2026-02-25T10:11:40.045056
MEAN_MOTION    = 14.14084103
ECCENTRICITY   = .0019565
INCLINATION    = 71.0599
RA_OF_ASC_NODE = 43.7066
ARG_OF_PERICENTER = 223.4156
MEAN_ANOMALY   = 136.5426

EPHEMERIS_TYPE = 0
CLASSIFICATION_TYPE = U
NORAD_CAT_ID   = 22219
ELEMENT_SET_NO = 999
REV_AT_EPOCH   = 71664
BSTAR          = .21247E-3
MEAN_MOTION_DOT = .358E-5
MEAN_MOTION_DDOT = 0

CCSDS_OMM_VERS = 2.0
CREATION_DATE  = 
ORIGINATOR     = 

OBJECT_NAME    = SL-16 R/B
OBJECT_ID      = 1992-076B
CENTER_NAME    = EARTH
REF_FRAME      = TEME
TIME_SYSTEM    = UTC
MEAN_ELEMENT_THEORY = SGP/SGP4

EPOCH          = 2026-02-25T11:33:52.766208
MEAN_MOTION    = 14.16856811
ECCENTRICITY   = .0010882
INCLINATION    = 70.9987
RA_OF_ASC_NODE = 214.0876
ARG_OF_PERICENTER = 118.8207
MEAN_ANOMALY   = 297.4148

EPHEMERIS_TYPE = 0
CLASSIFICATION_TYPE = U
NORAD_CAT_ID   = 22220
ELEMENT_SET_NO = 999
REV_AT_EPOCH   = 72010
BSTAR          = .16714E-3
MEAN_MOTION_DOT = .287E-5
MEAN_MOTION_DDOT = 0

CCSDS_OMM_VERS = 2.0
CREATION_DATE  = 
ORIGINATOR     = 

OBJECT_NAME    = COSMOS 2221
OBJECT_ID      = 1992-080A
CENTER_NAME    = EARTH
REF_FRAME      = TEME
TIME_SYSTEM    = UTC
MEAN_ELEMENT_THEORY = SGP/SGP4

EPOCH          = 2026-02-25T03:08:37.121280
MEAN_MOTION    = 14.96145631
ECCENTRICITY   = .0013035
INCLINATION    = 82.5029
RA_OF_ASC_NODE = 291.1116
ARG_OF_PERICENTER = 231.8762
MEAN_ANOMALY   = 128.1286

EPHEMERIS_TYPE = 0
CLASSIFICATION_TYPE = U
NORAD_CAT_ID   = 22236
ELEMENT_SET_NO = 999
REV_AT_EPOCH   = 77891
BSTAR          = .13689604E-3
MEAN_MOTION_DOT = .1568E-4
MEAN_MOTION_DDOT = 0

CCSDS_OMM_VERS = 2.0
CREATION_DATE  = 
ORIGINATOR     = 

OBJECT_NAME    = SL-16 R/B
OBJECT_ID      = 1992-093B
CENTER_NAME    = EARTH
REF_FRAME      = TEME
TIME_SYSTEM    = UTC
MEAN_ELEMENT_THEORY = SGP/SGP4

EPOCH          = 2026-02-25T08:56:01.176576
MEAN_MOTION    = 14.15449125
ECCENTRICITY   = .0005986
INCLINATION    = 71.0228
RA_OF_ASC_NODE = 30.1219
ARG_OF_PERICENTER = 307.0148
MEAN_ANOMALY   = 53.0427

EPHEMERIS_TYPE = 0
CLASSIFICATION_TYPE = U
NORAD_CAT_ID   = 22285
ELEMENT_SET_NO = 999
REV_AT_EPOCH   = 71141
BSTAR          = .87304E-4
MEAN_MOTION_DOT = .123E-5
MEAN_MOTION_DDOT = 0

CCSDS_OMM_VERS = 2.0
CREATION_DATE  = 
ORIGINATOR     = 

OBJECT_NAME    = COSMOS 2228
OBJECT_ID      = 1992-094A
CENTER_NAME    = EARTH
REF_FRAME      = TEME
TIME_SYSTEM    = UTC
MEAN_ELEMENT_THEORY = SGP/SGP4

EPOCH          = 2026-02-25T11:45:17.867232
MEAN_MOTION    = 14.97122568
ECCENTRICITY   = .0017643
INCLINATION    = 82.5147
RA_OF_ASC_NODE = 248.9937
ARG_OF_PERICENTER = 347.6700
MEAN_ANOMALY   = 12.4088

EPHEMERIS_TYPE = 0
CLASSIFICATION_TYPE = U
NORAD_CAT_ID   = 22286
ELEMENT_SET_NO = 999
REV_AT_EPOCH   = 77423
BSTAR          = .17662E-3
MEAN_MOTION_DOT = .207E-4
MEAN_MOTION_DDOT = 0

