SL-14 R/B               
1 21423U 91042B   26056.46799050  .00000441  00000+0  52799-4 0  9991
2 21423  82.4901 231.6445 0015563 282.4846  77.4626 14.81815039851261
ERS-1                   
1 21574U 91050A   26056.46335048  .00000308  00000+0  11333-3 0  9990
2 21574  98.7890  74.3905 0031056 237.4592 122.3593 14.39438284813976
ARIANE 40 R/B           
1 21610U 91050F   26056.12730714  .00000241  00000+0  84694-4 0  9990
2 21610  98.2041 108.8337 0004343 108.3367 251.8297 14.42882973817185
INTERCOSMOS 25          
1 21819U 91086A   26056.19149554  .00001403  00000+0  26895-3 0  9992
2 21819  82.6072 317.5611 1487096 143.8564 227.2950 12.11958918495176
SL-8 R/B                
1 21876U 92008B   26056.15348403  .00000012  00000+0 -33631-5 0  9994
2 21876  82.9235 277.1058 0034893 167.6842 311.4648 13.75969931707695
SL-8 R/B                
1 21938U 92020B   26056.40043451  .00000075  00000+0  61993-4 0  9999
2 21938  82.9344 162.8830 0028215 334.3958  92.4151 13.75547886699444
USA 81                  
1 21949U 92023A   26056.29396809  .00000169  00000+0  55038-4 0  9996
2 21949  85.0108 138.5903 0002745  88.4169 271.7338 14.32363236 93019
COSMOS 2219             
1 22219U 92076A   26056.42476904  .00000358  00000+0  21247-3 0  9999
2 22219  71.0599  43.7066 0019565 223.4156 136.5426 14.14084103716641
SL-16 R/B               
1 22220U 92076B   26056.48186072  .00000287  00000+0  16714-3 0  9995
2 22220  70.9987 214.0876 0010882 118.8207 297.4148 14.16856811720100
COSMOS 2221             
1 22236U 92080A   26056.13098520  .00001568  00000+0  13690-3 0  9992
2 22236  82.5029 291.1116 0013035 231.8762 128.1286 14.96145631778915
SL-16 R/B               
1 22285U 92093B   26056.37223584  .00000123  00000+0  87304-4 0  9996
2 22285  71.0228  30.1219 0005986 307.0148  53.0427 14.15449125711419
COSMOS 2228             
1 22286U 92094A   26056.48979013  .00002070  00000+0  17662-3 0  9997
2 22286  82.5147 248.9937 0017643 347.6700  12.4088 14.97122568774230
